NORAD_CAT_ID,OBJECT_NAME,OBJECT_TYPE,EPOCH,MEAN_MOTION,ECCENTRICITY,INCLINATION,RA_OF_ASC_NODE,ARG_OF_PERICENTER,MEAN_ANOMALY,BSTAR,MEAN_MOTION_DOT,MEAN_MOTION_DDOT,TLE_LINE0,TLE_LINE1,TLE_LINE2,SEMIMAJOR_AXIS,PERIOD,APOGEE,PERIGEE,DECAYED
51853.0,STARLINK-3539,PAYLOAD,2023-11-18 09:04:45,15.08834576,0.0001084,53.2163,200.018,91.6857,268.4259,-6.8988e-05,-1.385e-05,0.0,0 STARLINK-3539,1 51853U 22022B   23322.37830003 -.00001385  00000-0 -68988-4 0  9998,2 51853  53.2163 200.0180 0001084  91.6857 268.4259 15.08834576 95809,6917.897,95.438,540.512,539.012,0.0
51853.0,STARLINK-3539,PAYLOAD,2023-11-19 00:58:35,15.08846021,7.72e-05,53.2165,197.0433,77.5951,282.5128,-0.00012223,-2.233e-05,0.0,0 STARLINK-3539,1 51853U 22022B   23323.04069315 -.00002233  00000-0 -12223-3 0  9996,2 51853  53.2165 197.0433 0000772  77.5951 282.5128 15.08846021 95909,6917.862,95.437,540.261,539.193,0.0
51853.0,STARLINK-3539,PAYLOAD,2023-11-19 08:55:29,15.08882042,8.36e-05,53.2161,195.5572,94.38,265.7287,-0.00059511,-9.757e-05,0.0,0 STARLINK-3539,1 51853U 22022B   23323.37187431 -.00009757  00000-0 -59511-3 0  9991,2 51853  53.2161 195.5572 0000836  94.3800 265.7287 15.08882042 95950,6917.752,95.435,540.195,539.039,0.0
51853.0,STARLINK-3539,PAYLOAD,2023-11-19 20:03:13,15.08836416,9.17e-05,53.2157,193.4761,112.6322,247.4767,0.00030335,4.543e-05,0.0,0 STARLINK-3539,1 51853U 22022B   23323.83557244  .00004543  00000-0  30335-3 0  9994,2 51853  53.2157 193.4761 0000917 112.6322 247.4767 15.08836416 96028,6917.891,95.438,540.391,539.122,0.0
51853.0,STARLINK-3539,PAYLOAD,2023-11-19 21:38:36,15.08840148,9.04e-05,53.2146,193.1786,112.4817,247.6271,0.00032941,4.959e-05,0.0,0 STARLINK-3539,1 51853U 22022B   23323.90181327  .00004959  00000-0  32941-3 0  9993,2 51853  53.2146 193.1786 0000904 112.4817 247.6271 15.08840148 96033,6917.88,95.438,540.37,539.12,0.0
51853.0,STARLINK-3539,PAYLOAD,2023-11-20 08:46:18,15.08843146,8.22e-05,53.2146,191.0971,111.0622,249.0458,0.00027719,4.127e-05,0.0,0 STARLINK-3539,1 51853U 22022B   23324.36549399  .00004127  00000-0  27719-3 0  9995,2 51853  53.2146 191.0971 0000822 111.0622 249.0458 15.08843146 96106,6917.871,95.437,540.304,539.167,0.0
51853.0,STARLINK-3539,PAYLOAD,2023-11-20 21:29:23,15.08845831,9.66e-05,53.2145,188.7174,109.603,250.5067,0.0002003,2.902e-05,0.0,0 STARLINK-3539,1 51853U 22022B   23324.89541250  .00002902  00000-0  20030-3 0  9999,2 51853  53.2145 188.7174 0000966 109.6030 250.5067 15.08845831 96182,6917.863,95.437,540.396,539.059,0.0
51853.0,STARLINK-3539,PAYLOAD,2023-11-21 14:58:38,15.08843829,9.14e-05,53.2141,185.4473,102.9174,257.1921,0.00011452,1.536e-05,0.0,0 STARLINK-3539,1 51853U 22022B   23325.62405286  .00001536  00000-0  11452-3 0  9999,2 51853  53.2141 185.4473 0000914 102.9174 257.1921 15.08843829 96291,6917.869,95.437,540.366,539.101,0.0
51853.0,STARLINK-3539,PAYLOAD,2023-11-21 19:44:47,15.08846979,0.0001017,53.2146,184.5545,106.8062,253.3041,0.00012126,1.643e-05,0.0,0 STARLINK-3539,1 51853U 22022B   23325.82277160  .00001643  00000-0  12126-3 0  9997,2 51853  53.2146 184.5545 0001017 106.8062 253.3041 15.08846979 96324,6917.859,95.437,540.428,539.021,0.0
51853.0,STARLINK-3539,PAYLOAD,2023-11-22 00:30:56,15.08849994,0.0001009,53.2145,183.6621,109.5581,250.552,0.00015458,2.174e-05,0.0,0 STARLINK-3539,1 51853U 22022B   23326.02148932  .00002174  00000-0  15458-3 0  9995,2 51853  53.2145 183.6621 0001009 109.5581 250.5520 15.08849994 96359,6917.85,95.437,540.413,539.017,0.0
51853.0,STARLINK-3539,PAYLOAD,2023-11-22 19:35:34,15.08849112,0.0001046,53.2144,180.093,108.5999,251.5107,0.00016604,2.356e-05,0.0,0 STARLINK-3539,1 51853U 22022B   23326.81636789  .00002356  00000-0  16604-3 0  9990,2 51853  53.2144 180.0930 0001046 108.5999 251.5107 15.08849112 96472,6917.853,95.437,540.441,538.994,0.0
51853.0,STARLINK-3539,PAYLOAD,2023-11-23 14:40:12,15.0883061,9.52e-05,53.2141,176.5236,112.0877,248.0217,-6.4067e-05,-1.307e-05,0.0,0 STARLINK-3539,1 51853U 22022B   23327.61125725 -.00001307  00000-0 -64067-4 0  9996,2 51853  53.2141 176.5236 0000952 112.0877 248.0217 15.08830610 96597,6917.909,95.438,540.433,539.116,0.0
51853.0,STARLINK-3539,PAYLOAD,2023-11-23 19:26:21,15.08834859,0.0001671,53.213,175.6243,130.6058,229.508,-4.3222e-05,-9.76e-06,0.0,0 STARLINK-3539,1 51853U 22022B   23327.80997413 -.00000976  00000-0 -43222-4 0  9999,2 51853  53.2130 175.6243 0001671 130.6058 229.5080 15.08834859 96624,6917.896,95.438,540.917,538.605,0.0
51853.0,STARLINK-3539,PAYLOAD,2023-11-23 21:01:45,15.08831216,0.0001039,53.2145,175.3341,94.0613,266.0498,-0.00010051,-1.887e-05,0.0,0 STARLINK-3539,1 51853U 22022B   23327.87621739 -.00001887  00000-0 -10051-3 0  9996,2 51853  53.2145 175.3341 0001039  94.0613 266.0498 15.08831216 96638,6917.907,95.438,540.491,539.053,0.0
51853.0,STARLINK-3539,PAYLOAD,2023-11-24 12:55:36,15.08833595,0.000109,53.2147,172.3589,105.4722,254.639,2.2217e-05,6.6e-07,0.0,0 STARLINK-3539,1 51853U 22022B   23328.53862119  .00000066  00000-0  22217-4 0  9993,2 51853  53.2147 172.3589 0001090 105.4722 254.6390 15.08833595 96733,6917.9,95.438,540.519,539.011,0.0
51853.0,STARLINK-3539,PAYLOAD,2023-11-24 20:52:32,15.08840679,0.0001178,53.2146,170.8759,114.9573,245.1542,0.0001741,2.484e-05,0.0,0 STARLINK-3539,1 51853U 22022B   23328.86981874  .00002484  00000-0  17410-3 0  9993,2 51853  53.2146 170.8759 0001178 114.9573 245.1542 15.08840679 96780,6917.878,95.438,540.558,538.928,0.0
51853.0,STARLINK-3539,PAYLOAD,2023-11-25 09:35:37,15.08843817,0.0001073,53.2141,168.4972,110.7611,249.3496,0.00038384,5.827e-05,0.0,0 STARLINK-3539,1 51853U 22022B   23329.39974019  .00005827  00000-0  38384-3 0  9992,2 51853  53.2141 168.4972 0001073 110.7611 249.3496 15.08843817 96866,6917.869,95.437,540.476,538.991,0.0
51853.0,STARLINK-3539,PAYLOAD,2023-11-25 22:18:42,15.08858459,0.0001013,53.2136,166.1184,107.8638,252.2465,0.0005849,9.038e-05,0.0,0 STARLINK-3539,1 51853U 22022B   23329.92965540  .00009038  00000-0  58490-3 0  9998,2 51853  53.2136 166.1184 0001013 107.8638 252.2465 15.08858459 96946,6917.824,95.436,540.39,538.988,0.0
51853.0,STARLINK-3539,PAYLOAD,2023-11-25 23:54:05,15.08860462,9.84e-05,53.2132,165.8203,104.8801,255.23,0.00066741,0.00010356,0.0,0 STARLINK-3539,1 51853U 22022B   23329.99589468  .00010356  00000-0  66741-3 0  9999,2 51853  53.2132 165.8203 0000984 104.8801 255.2300 15.08860462 96954,6917.818,95.436,540.364,539.002,0.0
51853.0,STARLINK-3539,PAYLOAD,2023-11-26 18:58:43,15.08842259,0.0001076,53.2132,162.2498,116.1569,243.9534,3.0625e-05,2e-06,0.0,0 STARLINK-3539,1 51853U 22022B   23330.79077614  .00000200  00000-0  30625-4 0  9994,2 51853  53.2132 162.2498 0001076 116.1569 243.9534 15.08842259 97072,6917.873,95.437,540.483,538.994,0.0
51853.0,STARLINK-3539,PAYLOAD,2023-11-26 20:34:06,15.08842217,0.0001017,53.2142,161.9522,96.6658,263.445,2.3528e-05,8.7e-07,0.0,0 STARLINK-3539,1 51853U 22022B   23330.85701741  .00000087  00000-0  23528-4 0  9993,2 51853  53.2142 161.9522 0001017  96.6658 263.4450 15.08842217 97082,6917.874,95.437,540.442,539.035,0.0
51853.0,STARLINK-3539,PAYLOAD,2023-11-27 12:27:57,15.08848563,8.63e-05,53.214,158.9785,94.5073,265.6017,-0.00032118,-5.397e-05,0.0,0 STARLINK-3539,1 51853U 22022B   23331.51941437 -.00005397  00000-0 -32118-3 0  9990,2 51853  53.2140 158.9785 0000863  94.5073 265.6017 15.08848563 97187,6917.854,95.437,540.316,539.122,0.0
51853.0,STARLINK-3539,PAYLOAD,2023-11-27 18:49:30,15.08836895,8.87e-05,53.215,157.7897,92.5852,267.5242,0.00010191,1.334e-05,0.0,0 STARLINK-3539,1 51853U 22022B   23331.78438061  .00001334  00000-0  10191-3 0  9995,2 51853  53.2150 157.7897 0000887  92.5852 267.5242 15.08836895 97229,6917.89,95.438,540.368,539.141,0.0
51853.0,STARLINK-3539,PAYLOAD,2023-11-28 12:18:44,15.08841768,0.0001072,53.215,154.5201,70.6699,289.4409,7.1314e-05,8.47e-06,0.0,0 STARLINK-3539,1 51853U 22022B   23332.51301806  .00000847  00000-0  71314-4 0  9996,2 51853  53.2150 154.5201 0001072  70.6699 289.4409 15.08841768 97331,6917.875,95.437,540.482,538.998,0.0
51853.0,STARLINK-3539,PAYLOAD,2023-11-28 18:40:17,15.08843104,0.0001068,53.2152,153.3308,69.4555,290.6551,8.4005e-05,1.05e-05,0.0,0 STARLINK-3539,1 51853U 22022B   23332.77797673  .00001050  00000-0  84005-4 0  9993,2 51853  53.2152 153.3308 0001068  69.4555 290.6551 15.08843104 97372,6917.871,95.437,540.475,538.997,0.0
51853.0,STARLINK-3539,PAYLOAD,2023-11-29 12:09:31,15.08839967,0.0001114,53.2152,150.0601,62.6738,297.4367,5.5815e-05,6.01e-06,0.0,0 STARLINK-3539,1 51853U 22022B   23333.50661984  .00000601  00000-0  55815-4 0  9998,2 51853  53.2152 150.0601 0001114  62.6738 297.4367 15.08839967 97486,6917.88,95.438,540.516,538.975,0.0
51853.0,STARLINK-3539,PAYLOAD,2023-11-30 18:21:51,15.08838713,0.0001038,53.2162,144.4098,79.6949,280.416,1.0835e-05,-1.15e-06,0.0,0 STARLINK-3539,1 51853U 22022B   23334.76518260 -.00000115  00000-0  10835-4 0  9999,2 51853  53.2162 144.4098 0001038  79.6949 280.4160 15.08838713 97673,6917.884,95.438,540.467,539.031,0.0
51853.0,STARLINK-3539,PAYLOAD,2023-12-01 16:37:15,15.08842808,0.0001154,53.2155,140.2462,53.6181,306.4917,9.008e-05,1.146e-05,0.0,0 STARLINK-3539,1 51853U 22022B   23335.69253818  .00001146  00000-0  90080-4 0  9991,2 51853  53.2155 140.2462 0001154  53.6181 306.4917 15.08842808 97818,6917.872,95.437,540.535,538.938,0.0
51853.0,STARLINK-3539,PAYLOAD,2023-12-02 11:41:52,15.08881286,7.89e-05,53.2151,136.6755,94.9156,265.1926,-0.00037887,-6.319e-05,0.0,0 STARLINK-3539,1 51853U 22022B   23336.48741222 -.00006319  00000-0 -37887-3 0  9994,2 51853  53.2151 136.6755 0000789  94.9156 265.1926 15.08881286 97938,6917.754,95.435,540.165,539.073,0.0
51853.0,STARLINK-3539,PAYLOAD,2023-12-02 16:28:01,15.08898609,7.36e-05,53.2151,135.7829,105.5257,254.5816,-0.00060616,-9.937e-05,0.0,0 STARLINK-3539,1 51853U 22022B   23336.68612529 -.00009937  00000-0 -60616-3 0  9998,2 51853  53.2151 135.7829 0000736 105.5257 254.5816 15.08898609 97963,6917.701,95.434,540.075,539.057,0.0
